     2.11           N: GPS NAV DATA                         RINEX VERSION / TYPE
teqc  2019Feb25     CORS-ADM Account    20260514 11:45:01UTCPGM / RUN BY / DATE
Linux 2.4.21-27.ELsmp|Opteron|gcc|Linux 64|=+               COMMENT
     2.10           N: GPS NAV DATA                         COMMENT
rvacn.e(1404.07)                        2026-05-14T11:26 UTCCOMMENT
This file contains the validated broadcast navigation       COMMENT
messages from the following files:                          COMMENT
aaaa1340.26n, abmf134k.26n, abpo134k.26n, albh134k.26n,     COMMENT
alic134k.26n, areq134k.26n, baie134k.26n, brew134k.26n,     COMMENT
brst134k.26n, brux134k.26n, bshm134k.26n, bucu134k.26n,     COMMENT
cebr134k.26n, chpi134k.26n, chum134k.26n, chur134k.26n,     COMMENT
ckis134k.26n, coco134k.26n, cro1134k.26n, darw134k.26n,     COMMENT
dav1134k.26n, dgar134k.26n, djig134k.26n, dlf1134k.26n,     COMMENT
drao134k.26n, dubo134k.26n, ebre134k.26n, fair134k.26n,     COMMENT
falk134k.26n, flin134k.26n, glps134k.26n, gode134k.26n,     COMMENT
guam134k.26n, harb134k.26n, hers134k.26n, hlfx134k.26n,     COMMENT
hob2134k.26n, hofn134k.26n, holb134k.26n, hrao134k.26n,     COMMENT
iisc134k.26n, iqal134k.26n, ista134k.26n, joze134k.26n,     COMMENT
jplm134k.26n, karr134k.26n, kat1134k.26n, kiri134k.26n,     COMMENT
kiru134k.26n, kokb134k.26n, koug134k.26n, kour134k.26n,     COMMENT
lmmf134k.26n, lpal134k.26n, m0se134k.26n, mac1134k.26n,     COMMENT
maju134k.26n, mal2134k.26n, mar6134k.26n, mas1134k.26n,     COMMENT
mat1134k.26n, mate134k.26n, maw1134k.26n, mcm4134k.26n,     COMMENT
mdo1134k.26n, medi134k.26n, met3134k.26n, mkea134k.26n,     COMMENT
mobs134k.26n, mro1134k.26n, nain134k.26n, nano134k.26n,     COMMENT
naur134k.26n, nico134k.26n, nklg134k.26n, nlib134k.26n,     COMMENT
nnor134k.26n, not1134k.26n, nrc1134k.26n, onsa134k.26n,     COMMENT
orid134k.26n, palm134k.26n, pert134k.26n, picl134k.26n,     COMMENT
pie1134k.26n, pimo134k.26n, pohn134k.26n, prds134k.26n,     COMMENT
ptvl134k.26n, qaq1134k.26n, qiki134k.26n, reso134k.26n,     COMMENT
reun134k.26n, reyk134k.26n, riga134k.26n, sant134k.26n,     COMMENT
sask134k.26n, sch2134k.26n, scor134k.26n, seyg134k.26n,     COMMENT
solo134k.26n, stj3134k.26n, stjo134k.26n, stpm134k.26n,     COMMENT
suth134k.26n, suwn134k.26n, sydn134k.26n, thtg134k.26n,     COMMENT
thu2134k.26n, tid1134k.26n, tow2134k.26n, tuva134k.26n,     COMMENT
unbj134k.26n, vacs134k.26n, vald134k.26n, vill134k.26n,     COMMENT
vis0134k.26n, warn134k.26n, whit134k.26n, will134k.26n,     COMMENT
wsrt134k.26n, wtzr134k.26n, xmis134k.26n, yar2134k.26n,     COMMENT
yarr134k.26n, yebe134k.26n, yell134k.26n, zim2134k.26n,     COMMENT
zimm134k.26n                                                COMMENT
    1.4900D-08  2.2350D-08 -1.1920D-07 -1.1920D-07          ION ALPHA
    1.0850D+05  1.3110D+05 -1.3110D+05 -3.9320D+05          ION BETA
    3.725290298460D-09 1.154631945610D-14   503808     2418 DELTA-UTC: A0,A1,T,W
                                                            END OF HEADER
16 26  5 14  7 59 44.0 2.627959474921D-04 6.934897101019D-12 0.000000000000D+00
    2.000000000000D+00 8.181250000000D+01 4.490187034313D-09 7.319061600637D-01
    4.611909389496D-06 1.498453493696D-02 1.269765198231D-05 5.153693359375D+03
    3.743840000000D+05-1.080334186554D-07-1.993598502865D-01 1.154839992523D-07
    9.584031538869D-01 1.345937500000D+02 9.342874438165D-01-8.221413883460D-09
   -1.350056235261D-10 1.000000000000D+00 2.418000000000D+03 0.000000000000D+00
    2.000000000000D+00 0.000000000000D+00-1.024454832077D-08 2.000000000000D+00
    3.718980000000D+05 4.000000000000D+00
24 26  5 14  7 59 44.0 1.015188172460D-05 1.853095454862D-11 0.000000000000D+00
    6.000000000000D+00-4.500000000000D+01 5.453798601174D-09-2.132127482296D+00
   -2.428889274597D-06 1.807960052975D-02 6.420537829399D-06 5.153634096146D+03
    3.743840000000D+05 2.570450305939D-07-1.444288547524D+00 2.980232238770D-08
    9.346293936029D-01 2.345937500000D+02 1.146569621078D+00-8.251415133132D-09
   -2.478674675321D-10 1.000000000000D+00 2.418000000000D+03 0.000000000000D+00
    2.000000000000D+00 0.000000000000D+00 2.328306436539D-09 6.000000000000D+00
    3.675480000000D+05 4.000000000000D+00
29 26  5 14  7 59 44.0-3.216550685465D-04 7.389644451905D-12 0.000000000000D+00
    1.600000000000D+01 6.775000000000D+01 4.872345809903D-09-4.099646208092D-01
    3.416091203690D-06 3.587612998672D-03 2.438202500343D-06 5.153718671799D+03
    3.743840000000D+05 1.117587089539D-08 8.335332884186D-01-9.126961231232D-08
    9.610339384868D-01 3.328437500000D+02 2.788188644300D+00-8.581428879529D-09
    9.821837690392D-11 1.000000000000D+00 2.418000000000D+03 0.000000000000D+00
    2.000000000000D+00 0.000000000000D+00-9.778887033463D-09 1.600000000000D+01
    3.672180000000D+05 4.000000000000D+00
 1 26  5 14  8  0  0.0 2.750763669610D-04-9.549694368616D-12 0.000000000000D+00
    5.600000000000D+01-1.117187500000D+02 4.545189325379D-09-1.520446702217D+00
   -5.709007382393D-06 1.739343395457D-03 5.198642611504D-06 5.153611881256D+03
    3.744000000000D+05-8.195638656616D-08 1.881984617951D+00-1.136213541031D-07
    9.572537011161D-01 2.800312500000D+02 1.901339544938D-01-8.246057767119D-09
   -4.107313943255D-10 1.000000000000D+00 2.418000000000D+03 0.000000000000D+00
    2.000000000000D+00 0.000000000000D+00-8.847564458847D-09 8.240000000000D+02
    3.672180000000D+05 4.000000000000D+00
 2 26  5 14  8  0  0.0 9.836209937930D-05 7.617018127348D-12 0.000000000000D+00
    4.800000000000D+01-9.137500000000D+01 4.705910305768D-09-2.287005726968D-02
   -4.956498742104D-06 1.681049703620D-02 4.131346940994D-06 5.153751897812D+03
    3.744000000000D+05 1.154839992523D-07 1.719678469637D+00-3.557652235031D-07
    9.623064241309D-01 3.066250000000D+02-7.689911772606D-01-8.642145694343D-09
   -4.782342060886D-10 1.000000000000D+00 2.418000000000D+03 0.000000000000D+00
    2.000000000000D+00 0.000000000000D+00-1.722946763039D-08 4.800000000000D+01
    3.699780000000D+05 4.000000000000D+00
 4 26  5 14  8  0  0.0 5.691777914762D-05 1.250555214938D-12 0.000000000000D+00
    8.500000000000D+01 2.956250000000D+01 4.614477925813D-09-6.192467466155D-01
    1.605600118637D-06 3.732539596967D-03 5.703419446945D-06 5.153695806503D+03
    3.744000000000D+05 3.539025783539D-08-2.342813264833D+00 1.303851604462D-08
    9.713308439199D-01 2.721250000000D+02-2.874890824937D+00-8.178554955356D-09
    5.393081786361D-10 1.000000000000D+00 2.418000000000D+03 0.000000000000D+00
    2.000000000000D+00 0.000000000000D+00-4.656612873077D-09 5.970000000000D+02
    3.672180000000D+05 4.000000000000D+00
 5 26  5 14  8  0  0.0-2.329479902983D-04-4.547473508865D-13 0.000000000000D+00
    1.020000000000D+02-3.709375000000D+01 3.638008680521D-09 2.378079399410D-02
   -1.829117536545D-06 5.567606654949D-03 1.265481114388D-05 5.153746307373D+03
    3.744000000000D+05-2.067536115646D-07 2.810998511268D+00 4.842877388000D-08
    9.809646173652D-01 1.478437500000D+02 1.433151024493D+00-7.622460363213D-09
    2.846547141543D-10 1.000000000000D+00 2.418000000000D+03 0.000000000000D+00
    2.000000000000D+00 0.000000000000D+00-1.071020960808D-08 1.020000000000D+02
    3.672180000000D+05 4.000000000000D+00
 6 26  5 14  8  0  0.0-6.035226397216D-04 3.637978807092D-12 0.000000000000D+00
    9.000000000000D+00-9.984375000000D+01 3.977308528008D-09-2.289444048603D+00
   -5.234032869339D-06 3.732398850843D-03 5.414709448814D-06 5.153681306839D+03
    3.744000000000D+05-8.568167686462D-08 1.834522774643D+00 5.587935447693D-08
    9.860329950664D-01 2.899062500000D+02-5.284366905493D-01-8.024619971918D-09
   -4.303750697063D-10 1.000000000000D+00 2.418000000000D+03 0.000000000000D+00
    2.000000000000D+00 0.000000000000D+00 3.725290298462D-09 9.000000000000D+00
    3.672200000000D+05 4.000000000000D+00
 7 26  5 14  8  0  0.0-1.844675280154D-04-4.433786671143D-12 0.000000000000D+00
    6.400000000000D+01-5.934375000000D+01 5.007351433429D-09-3.108514593882D+00
   -3.241002559662D-06 2.084908948746D-02 7.608905434608D-06 5.153601964951D+03
    3.744000000000D+05 2.291053533554D-07-1.334438103560D+00-2.924352884293D-07
    9.505983059951D-01 2.257812500000D+02-1.969370153955D+00-7.986404094359D-09
   -4.335894893140D-10 1.000000000000D+00 2.418000000000D+03 0.000000000000D+00
    2.000000000000D+00 0.000000000000D+00-1.071020960808D-08 6.400000000000D+01
    3.672210000000D+05 4.000000000000D+00
 8 26  5 14  8  0  0.0 4.432993009686D-04-7.503331289627D-12 0.000000000000D+00
    4.400000000000D+01 9.371875000000D+01 5.327007605535D-09-3.218788927136D-01
    4.898756742477D-06 1.158853620291D-02 3.367662429810D-06 5.153718246460D+03
    3.744000000000D+05 1.862645149231D-08 7.107999972501D-01 1.620501279831D-07
    9.428134927663D-01 3.018437500000D+02 5.419430056444D-01-8.882870007191D-09
    1.221479450951D-10 1.000000000000D+00 2.418000000000D+03 0.000000000000D+00
    2.000000000000D+00 0.000000000000D+00 4.656612873077D-09 4.400000000000D+01
    3.672180000000D+05 4.000000000000D+00
 9 26  5 14  8  0  0.0 7.502487860620D-04-4.320099833421D-12 0.000000000000D+00
    2.600000000000D+01 3.115625000000D+01 4.715553564591D-09 2.860502120081D-01
    1.523643732071D-06 3.410881501622D-03 6.061047315598D-06 5.153731615067D+03
    3.744000000000D+05-4.470348358154D-08-2.407537408351D+00 2.235174179077D-08
    9.656190280341D-01 2.620937500000D+02 2.040841631143D+00-8.286773748818D-09
    5.578803808143D-10 1.000000000000D+00 2.418000000000D+03 0.000000000000D+00
    2.000000000000D+00 0.000000000000D+00 4.656612873077D-10 2.600000000000D+01
    3.693660000000D+05 4.000000000000D+00
